{"type": "FeatureCollection", "features": [ {"type": "Feature", "properties": {"norad_id": 54234, "name": "NOAA 21 (JPSS-2)", "group": "weather", "lat": 72.38295311900681, "lon": 124.06199186921924, "alt_km": 818.8795744832078, "timestamp": "2025-12-04T15:47:53.739482+00:00", "meta": {"OBJECT_NAME": "NOAA 21 (JPSS-2)", "OBJECT_ID": "2022-150A", "EPOCH": "2025-12-04T06:50:44.872512", "MEAN_MOTION": 14.19520656, "ECCENTRICITY": 0.00025156, "INCLINATION": 98.7449, "RA_OF_ASC_NODE": 274.6995, "ARG_OF_PERICENTER": 53.9232, "MEAN_ANOMALY": 306.2177, "EPHEMERIS_TYPE": 0, "CLASSIFICATION_TYPE": "U", "NORAD_CAT_ID": 54234, "ELEMENT_SET_NO": 999, "REV_AT_EPOCH": 15889, "BSTAR": 0.00012739641, "MEAN_MOTION_DOT": 2.25e-06, "MEAN_MOTION_DDOT": 0}, "tle": {"line1": "1 54234U 22150A   25338.28524158  .00000225  00000+0  12740-3 0  9999", "line2": "2 54234  98.7449 274.6995 0002515  53.9232 306.2177 14.19520656158896"}}, "geometry": {"type": "Point", "coordinates": [124.06199186921924, 72.38295311900681]}}, {"type": "Feature", "properties": {"norad_id": 54743, "name": "METEOSAT-12 (MTG-I1)", "group": "weather", "lat": -0.7138153849776552, "lon": -49.57888499431923, "alt_km": 35782.65931367688, "timestamp": "2025-12-04T15:47:53.739496+00:00", "meta": {"OBJECT_NAME": "METEOSAT-12 (MTG-I1)", "OBJECT_ID": "2022-170C", "EPOCH": "2025-12-04T05:09:49.421376", "MEAN_MOTION": 1.00273795, "ECCENTRICITY": 0.00015299, "INCLINATION": 0.7187, "RA_OF_ASC_NODE": 30.1576, "ARG_OF_PERICENTER": 217.1226, "MEAN_ANOMALY": 263.1859, "EPHEMERIS_TYPE": 0, "CLASSIFICATION_TYPE": "U", "NORAD_CAT_ID": 54743, "ELEMENT_SET_NO": 999, "REV_AT_EPOCH": 1102, "BSTAR": 0, "MEAN_MOTION_DOT": 9e-08, "MEAN_MOTION_DDOT": 0}, "tle": {"line1": "1 54743U 22170C   25338.21515534  .00000009  00000+0  00000+0 0  9999", "line2": "2 54743   0.7187  30.1576 0001529 217.1226 263.1859  1.00273795 11020"}}, "geometry": {"type": "Point", "coordinates": [-49.57888499431923, -0.7138153849776552]}}, {"type": "Feature", "properties": {"norad_id": 55973, "name": "TIANMU-1 03", "group": "weather", "lat": 68.51979610170933, "lon": -19.325732635639714, "alt_km": 434.9997601652949, "timestamp": "2025-12-04T15:47:53.739508+00:00", "meta": {"OBJECT_NAME": "TIANMU-1 03", "OBJECT_ID": "2023-039A", "EPOCH": "2025-12-04T07:31:39.873216", "MEAN_MOTION": 15.40547491, "ECCENTRICITY": 0.00045626, "INCLINATION": 97.5101, "RA_OF_ASC_NODE": 140.7325, "ARG_OF_PERICENTER": 85.0581, "MEAN_ANOMALY": 275.1186, "EPHEMERIS_TYPE": 0, "CLASSIFICATION_TYPE": "U", "NORAD_CAT_ID": 55973, "ELEMENT_SET_NO": 999, "REV_AT_EPOCH": 15076, "BSTAR": 0.00078271202, "MEAN_MOTION_DOT": 0.00031811, "MEAN_MOTION_DDOT": 0}, "tle": {"line1": "1 55973U 23039A   25338.31365594  .00031811  00000+0  78271-3 0  9994", "line2": "2 55973  97.5101 140.7325 0004562  85.0581 275.1186 15.40547491150769"}}, "geometry": {"type": "Point", "coordinates": [-19.325732635639714, 68.51979610170933]}}, {"type": "Feature", "properties": {"norad_id": 55974, "name": "TIANMU-1 04", "group": "weather", "lat": -34.204617215793085, "lon": -44.85941123012247, "alt_km": 452.2556897274035, "timestamp": "2025-12-04T15:47:53.739519+00:00", "meta": {"OBJECT_NAME": "TIANMU-1 04", "OBJECT_ID": "2023-039B", "EPOCH": "2025-12-04T08:38:12.056928", "MEAN_MOTION": 15.40880717, "ECCENTRICITY": 0.00052346, "INCLINATION": 97.5035, "RA_OF_ASC_NODE": 139.9744, "ARG_OF_PERICENTER": 81.0808, "MEAN_ANOMALY": 279.103, "EPHEMERIS_TYPE": 0, "CLASSIFICATION_TYPE": "U", "NORAD_CAT_ID": 55974, "ELEMENT_SET_NO": 999, "REV_AT_EPOCH": 15077, "BSTAR": 0.00078396831, "MEAN_MOTION_DOT": 0.0003222, "MEAN_MOTION_DDOT": 0}, "tle": {"line1": "1 55974U 23039B   25338.35986177  .00032220  00000+0  78397-3 0  9999", "line2": "2 55974  97.5035 139.9744 0005234  81.0808 279.1030 15.40880717150770"}}, "geometry": {"type": "Point", "coordinates": [-44.85941123012247, -34.204617215793085]}}, {"type": "Feature", "properties": {"norad_id": 55975, "name": "TIANMU-1 05", "group": "weather", "lat": -75.23436804758204, "lon": -69.25370684484436, "alt_km": 454.59598527239996, "timestamp": "2025-12-04T15:47:53.739529+00:00", "meta": {"OBJECT_NAME": "TIANMU-1 05", "OBJECT_ID": "2023-039C", "EPOCH": "2025-12-04T08:26:58.259616", "MEAN_MOTION": 15.40508195, "ECCENTRICITY": 0.00043162, "INCLINATION": 97.5081, "RA_OF_ASC_NODE": 140.4583, "ARG_OF_PERICENTER": 101.5919, "MEAN_ANOMALY": 258.5811, "EPHEMERIS_TYPE": 0, "CLASSIFICATION_TYPE": "U", "NORAD_CAT_ID": 55975, "ELEMENT_SET_NO": 999, "REV_AT_EPOCH": 15075, "BSTAR": 0.00078864759, "MEAN_MOTION_DOT": 0.00032011, "MEAN_MOTION_DDOT": 0}, "tle": {"line1": "1 55975U 23039C   25338.35206319  .00032011  00000+0  78865-3 0  9991", "line2": "2 55975  97.5081 140.4583 0004316 101.5919 258.5811 15.40508195150754"}}, "geometry": {"type": "Point", "coordinates": [-69.25370684484436, -75.23436804758204]}}, {"type": "Feature", "properties": {"norad_id": 55976, "name": "TIANMU-1 06", "group": "weather", "lat": -20.790648859461896, "lon": -41.63958014156918, "alt_km": 449.4722484906497, "timestamp": "2025-12-04T15:47:53.739539+00:00", "meta": {"OBJECT_NAME": "TIANMU-1 06", "OBJECT_ID": "2023-039D", "EPOCH": "2025-12-04T08:41:44.555136", "MEAN_MOTION": 15.40933727, "ECCENTRICITY": 0.00046794, "INCLINATION": 97.5092, "RA_OF_ASC_NODE": 140.9271, "ARG_OF_PERICENTER": 97.1856, "MEAN_ANOMALY": 262.9922, "EPHEMERIS_TYPE": 0, "CLASSIFICATION_TYPE": "U", "NORAD_CAT_ID": 55976, "ELEMENT_SET_NO": 999, "REV_AT_EPOCH": 15077, "BSTAR": 0.0007816242, "MEAN_MOTION_DOT": 0.00032176, "MEAN_MOTION_DDOT": 0}, "tle": {"line1": "1 55976U 23039D   25338.36232124  .00032176  00000+0  78162-3 0  9998", "line2": "2 55976  97.5092 140.9271 0004679  97.1856 262.9922 15.40933727150775"}}, "geometry": {"type": "Point", "coordinates": [-41.63958014156918, -20.790648859461896]}}, {"type": "Feature", "properties": {"norad_id": 56232, "name": "FENGYUN 3G", "group": "weather", "lat": -31.386385943559873, "lon": 119.95737324976577, "alt_km": 414.2279309132937, "timestamp": "2025-12-04T15:47:53.739550+00:00", "meta": {"OBJECT_NAME": "FENGYUN 3G", "OBJECT_ID": "2023-055A", "EPOCH": "2025-12-04T08:39:59.795136", "MEAN_MOTION": 15.5288598, "ECCENTRICITY": 0.00092032, "INCLINATION": 49.9947, "RA_OF_ASC_NODE": 270.6675, "ARG_OF_PERICENTER": 108.2747, "MEAN_ANOMALY": 251.9222, "EPHEMERIS_TYPE": 0, "CLASSIFICATION_TYPE": "U", "NORAD_CAT_ID": 56232, "ELEMENT_SET_NO": 999, "REV_AT_EPOCH": 14972, "BSTAR": 0.00097235273, "MEAN_MOTION_DOT": 0.00061724, "MEAN_MOTION_DDOT": 0}, "tle": {"line1": "1 56232U 23055A   25338.36110874  .00061724  00000+0  97235-3 0  9992", "line2": "2 56232  49.9947 270.6675 0009203 108.2747 251.9222 15.52885980149725"}}, "geometry": {"type": "Point", "coordinates": [119.95737324976577, -31.386385943559873]}}, {"type": "Feature", "properties": {"norad_id": 57166, "name": "METEOR-M2 3", "group": "weather", "lat": -59.9908070672728, "lon": -162.92313382850932, "alt_km": 821.581819425659, "timestamp": "2025-12-04T15:47:53.739560+00:00", "meta": {"OBJECT_NAME": "METEOR-M2 3", "OBJECT_ID": "2023-091A", "EPOCH": "2025-12-04T07:55:27.197760", "MEAN_MOTION": 14.24024587, "ECCENTRICITY": 0.00043576, "INCLINATION": 98.639, "RA_OF_ASC_NODE": 32.016, "ARG_OF_PERICENTER": 31.4823, "MEAN_ANOMALY": 328.6616, "EPHEMERIS_TYPE": 0, "CLASSIFICATION_TYPE": "U", "NORAD_CAT_ID": 57166, "ELEMENT_SET_NO": 999, "REV_AT_EPOCH": 12678, "BSTAR": 5.4004761e-05, "MEAN_MOTION_DOT": 8.1e-07, "MEAN_MOTION_DDOT": 0}, "tle": {"line1": "1 57166U 23091A   25338.33017590  .00000081  00000+0  54005-4 0  9995", "line2": "2 57166  98.6390  32.0160 0004357  31.4823 328.6616 14.24024587126787"}}, "geometry": {"type": "Point", "coordinates": [-162.92313382850932, -59.9908070672728]}}, {"type": "Feature", "properties": {"norad_id": 57399, "name": "TIANMU-1 07", "group": "weather", "lat": -69.8454738323328, "lon": 49.098593996345535, "alt_km": 493.2489269156049, "timestamp": "2025-12-04T15:47:53.739570+00:00", "meta": {"OBJECT_NAME": "TIANMU-1 07", "OBJECT_ID": "2023-101A", "EPOCH": "2025-12-04T08:15:01.803168", "MEAN_MOTION": 15.27883646, "ECCENTRICITY": 0.00056297, "INCLINATION": 97.2892, "RA_OF_ASC_NODE": 28.3801, "ARG_OF_PERICENTER": 102.9375, "MEAN_ANOMALY": 257.2494, "EPHEMERIS_TYPE": 0, "CLASSIFICATION_TYPE": "U", "NORAD_CAT_ID": 57399, "ELEMENT_SET_NO": 999, "REV_AT_EPOCH": 13187, "BSTAR": 0.00060473243, "MEAN_MOTION_DOT": 0.00016414, "MEAN_MOTION_DDOT": 0}, "tle": {"line1": "1 57399U 23101A   25338.34377087  .00016414  00000+0  60473-3 0  9998", "line2": "2 57399  97.2892  28.3801 0005629 102.9375 257.2494 15.27883646131876"}}, "geometry": {"type": "Point", "coordinates": [49.098593996345535, -69.8454738323328]}}, {"type": "Feature", "properties": {"norad_id": 57400, "name": "TIANMU-1 08", "group": "weather", "lat": 67.69533429399095, "lon": -133.33450754442632, "alt_km": 470.4858763858547, "timestamp": "2025-12-04T15:47:53.739583+00:00", "meta": {"OBJECT_NAME": "TIANMU-1 08", "OBJECT_ID": "2023-101B", "EPOCH": "2025-12-04T07:27:17.983584", "MEAN_MOTION": 15.27866983, "ECCENTRICITY": 0.00074732, "INCLINATION": 97.288, "RA_OF_ASC_NODE": 28.1473, "ARG_OF_PERICENTER": 107.5431, "MEAN_ANOMALY": 252.6625, "EPHEMERIS_TYPE": 0, "CLASSIFICATION_TYPE": "U", "NORAD_CAT_ID": 57400, "ELEMENT_SET_NO": 999, "REV_AT_EPOCH": 13186, "BSTAR": 0.00059259914, "MEAN_MOTION_DOT": 0.0001608, "MEAN_MOTION_DDOT": 0}, "tle": {"line1": "1 57400U 23101B   25338.31062481  .00016080  00000+0  59260-3 0  9998", "line2": "2 57400  97.2880  28.1473 0007473 107.5431 252.6625 15.27866983131861"}}, "geometry": {"type": "Point", "coordinates": [-133.33450754442632, 67.69533429399095]}}]}